ISS (ZARYA)             
1 25544U 98067A   26110.78039753  .00009753  00000+0  18580-3 0  9990
2 25544  51.6325 224.2241 0006701 330.9223  29.1391 15.48857372562858
CSS (TIANHE)            
1 48274U 21035A   26110.92198984  .00030776  00000+0  33518-3 0  9991
2 48274  41.4677 310.7964 0006514 246.3399 113.6757 15.62720710284216
HTV-X1                  
1 66174U 25241A   26109.66693346  .00005975  00000+0  19778-3 0  9999
2 66174  51.6366 235.4531 0007673 331.4211  28.6349 15.32697623 27223
SZ-21 MODULE            
1 66515U 25246C   26110.85885372  .00036254  00000+0  27243-3 0  9998
2 66515  41.4737 303.1175 0004422 300.3097  59.7308 15.71815104 24703
POISK                   
1 36086U 09060A   26110.78039753  .00009753  00000+0  18580-3 0  9998
2 36086  51.6325 224.2241 0006701 330.9223  29.1391 15.48857372561490
ISS (NAUKA)             
1 49044U 21066A   26110.78039753  .00009753  00000+0  18580-3 0  9996
2 49044  51.6325 224.2241 0006701 330.9223  29.1391 15.48857372561533
FREGAT DEB              
1 49271U 11037PF  26110.89443722  .00002926  00000+0  45296-2 0  9990
2 49271  51.6411 174.0073 0943684 156.1480 208.6232 12.41011258217934
CSS (WENTIAN)           
1 53239U 22085A   26110.92198984  .00030776  00000+0  33518-3 0  9994
2 53239  41.4677 310.7964 0006514 246.3399 113.6757 15.62720710283133
CSS (MENGTIAN)          
1 54216U 22143A   26110.92198984  .00030776  00000+0  33518-3 0  9995
2 54216  41.4677 310.7964 0006514 246.3399 113.6757 15.62720710284062
TIANZHOU-9              
1 64786U 25149A   26110.92198984  .00030776  00000+0  33518-3 0  9997
2 64786  41.4677 310.7964 0006514 246.3399 113.6757 15.62720710284076
PROGRESS-MS 32          
1 65586U 25204A   26110.78039753  .00009753  00000+0  18580-3 0  9993
2 65586  51.6325 224.2241 0006701 330.9223  29.1391 15.48857372554501
BOTAN                   
1 65943U 98067XQ  26108.50080101  .04905991  12189-4  10064-2 0  9994
2 65943  51.6087 206.4857 0010568 326.5110  33.5243 16.30209286 29857
HRC MONOBLOCK CAMERA    
1 66052U 98067XR  26110.28262288  .00038853  00000+0  36474-3 0  9990
2 66052  51.6265 214.8859 0004323 309.0386  51.0225 15.66761300 28903
SHENZHOU-22             
1 66645U 25272A   26110.92198984  .00030776  00000+0  33518-3 0  9990
2 66645  41.4677 310.7964 0006514 246.3399 113.6757 15.62720710284083
SOYUZ-MS 28             
1 66664U 25275A   26110.78039753  .00009753  00000+0  18580-3 0  9999
2 66664  51.6325 224.2241 0006701 330.9223  29.1391 15.48857372561776
DUPLEX                  
1 66906U 98067XS  26110.03309750  .00028265  00000+0  36371-3 0  9999
2 66906  51.6288 222.2330 0004262 316.4091  43.6565 15.58821856 21574
