[{"OBJECT_NAME":"ISS (ZARYA)","OBJECT_ID":"1998-067A","EPOCH":"2026-04-20T18:43:46.346592","MEAN_MOTION":15.48857372,"ECCENTRICITY":0.00067015,"INCLINATION":51.6325,"RA_OF_ASC_NODE":224.2241,"ARG_OF_PERICENTER":330.9223,"MEAN_ANOMALY":29.1391,"EPHEMERIS_TYPE":0,"CLASSIFICATION_TYPE":"U","NORAD_CAT_ID":25544,"ELEMENT_SET_NO":999,"REV_AT_EPOCH":56285,"BSTAR":0.00018579997,"MEAN_MOTION_DOT":9.753e-5,"MEAN_MOTION_DDOT":0},{"OBJECT_NAME":"POISK","OBJECT_ID":"2009-060A","EPOCH":"2026-04-20T18:43:46.346592","MEAN_MOTION":15.48857372,"ECCENTRICITY":0.00067015,"INCLINATION":51.6325,"RA_OF_ASC_NODE":224.2241,"ARG_OF_PERICENTER":330.9223,"MEAN_ANOMALY":29.1391,"EPHEMERIS_TYPE":0,"CLASSIFICATION_TYPE":"U","NORAD_CAT_ID":36086,"ELEMENT_SET_NO":999,"REV_AT_EPOCH":56149,"BSTAR":0.00018579997,"MEAN_MOTION_DOT":9.753e-5,"MEAN_MOTION_DDOT":0},{"OBJECT_NAME":"CSS (TIANHE)","OBJECT_ID":"2021-035A","EPOCH":"2026-04-20T22:07:39.922176","MEAN_MOTION":15.6272071,"ECCENTRICITY":0.00065145,"INCLINATION":41.4677,"RA_OF_ASC_NODE":310.7964,"ARG_OF_PERICENTER":246.3399,"MEAN_ANOMALY":113.6757,"EPHEMERIS_TYPE":0,"CLASSIFICATION_TYPE":"U","NORAD_CAT_ID":48274,"ELEMENT_SET_NO":999,"REV_AT_EPOCH":28421,"BSTAR":0.00033518255,"MEAN_MOTION_DOT":0.00030776,"MEAN_MOTION_DDOT":0},{"OBJECT_NAME":"ISS (NAUKA)","OBJECT_ID":"2021-066A","EPOCH":"2026-04-20T18:43:46.346592","MEAN_MOTION":15.48857372,"ECCENTRICITY":0.00067015,"INCLINATION":51.6325,"RA_OF_ASC_NODE":224.2241,"ARG_OF_PERICENTER":330.9223,"MEAN_ANOMALY":29.1391,"EPHEMERIS_TYPE":0,"CLASSIFICATION_TYPE":"U","NORAD_CAT_ID":49044,"ELEMENT_SET_NO":999,"REV_AT_EPOCH":56153,"BSTAR":0.00018579997,"MEAN_MOTION_DOT":9.753e-5,"MEAN_MOTION_DDOT":0},{"OBJECT_NAME":"FREGAT DEB","OBJECT_ID":"2011-037PF","EPOCH":"2026-04-20T21:27:59.375808","MEAN_MOTION":12.41011258,"ECCENTRICITY":0.09436849,"INCLINATION":51.6411,"RA_OF_ASC_NODE":174.0073,"ARG_OF_PERICENTER":156.148,"MEAN_ANOMALY":208.6232,"EPHEMERIS_TYPE":0,"CLASSIFICATION_TYPE":"U","NORAD_CAT_ID":49271,"ELEMENT_SET_NO":999,"REV_AT_EPOCH":21793,"BSTAR":0.004529602,"MEAN_MOTION_DOT":2.926e-5,"MEAN_MOTION_DDOT":0},{"OBJECT_NAME":"CSS (WENTIAN)","OBJECT_ID":"2022-085A","EPOCH":"2026-04-20T22:07:39.922176","MEAN_MOTION":15.6272071,"ECCENTRICITY":0.00065145,"INCLINATION":41.4677,"RA_OF_ASC_NODE":310.7964,"ARG_OF_PERICENTER":246.3399,"MEAN_ANOMALY":113.6757,"EPHEMERIS_TYPE":0,"CLASSIFICATION_TYPE":"U","NORAD_CAT_ID":53239,"ELEMENT_SET_NO":999,"REV_AT_EPOCH":28313,"BSTAR":0.00033518255,"MEAN_MOTION_DOT":0.00030776,"MEAN_MOTION_DDOT":0},{"OBJECT_NAME":"CSS (MENGTIAN)","OBJECT_ID":"2022-143A","EPOCH":"2026-04-20T22:07:39.922176","MEAN_MOTION":15.6272071,"ECCENTRICITY":0.00065145,"INCLINATION":41.4677,"RA_OF_ASC_NODE":310.7964,"ARG_OF_PERICENTER":246.3399,"MEAN_ANOMALY":113.6757,"EPHEMERIS_TYPE":0,"CLASSIFICATION_TYPE":"U","NORAD_CAT_ID":54216,"ELEMENT_SET_NO":999,"REV_AT_EPOCH":28406,"BSTAR":0.00033518255,"MEAN_MOTION_DOT":0.00030776,"MEAN_MOTION_DDOT":0},{"OBJECT_NAME":"TIANZHOU-9","OBJECT_ID":"2025-149A","EPOCH":"2026-04-20T22:07:39.922176","MEAN_MOTION":15.6272071,"ECCENTRICITY":0.00065145,"INCLINATION":41.4677,"RA_OF_ASC_NODE":310.7964,"ARG_OF_PERICENTER":246.3399,"MEAN_ANOMALY":113.6757,"EPHEMERIS_TYPE":0,"CLASSIFICATION_TYPE":"U","NORAD_CAT_ID":64786,"ELEMENT_SET_NO":999,"REV_AT_EPOCH":28407,"BSTAR":0.00033518255,"MEAN_MOTION_DOT":0.00030776,"MEAN_MOTION_DDOT":0},{"OBJECT_NAME":"PROGRESS-MS 32","OBJECT_ID":"2025-204A","EPOCH":"2026-04-20T18:43:46.346592","MEAN_MOTION":15.48857372,"ECCENTRICITY":0.00067015,"INCLINATION":51.6325,"RA_OF_ASC_NODE":224.2241,"ARG_OF_PERICENTER":330.9223,"MEAN_ANOMALY":29.1391,"EPHEMERIS_TYPE":0,"CLASSIFICATION_TYPE":"U","NORAD_CAT_ID":65586,"ELEMENT_SET_NO":999,"REV_AT_EPOCH":55450,"BSTAR":0.00018579997,"MEAN_MOTION_DOT":9.753e-5,"MEAN_MOTION_DDOT":0},{"OBJECT_NAME":"BOTAN","OBJECT_ID":"1998-067XQ","EPOCH":"2026-04-18T12:01:09.207264","MEAN_MOTION":16.30209286,"ECCENTRICITY":0.0010568,"INCLINATION":51.6087,"RA_OF_ASC_NODE":206.4857,"ARG_OF_PERICENTER":326.511,"MEAN_ANOMALY":33.5243,"EPHEMERIS_TYPE":0,"CLASSIFICATION_TYPE":"U","NORAD_CAT_ID":65943,"ELEMENT_SET_NO":999,"REV_AT_EPOCH":2985,"BSTAR":0.0010064,"MEAN_MOTION_DOT":0.04905991,"MEAN_MOTION_DDOT":1.2189e-5},{"OBJECT_NAME":"HRC MONOBLOCK CAMERA","OBJECT_ID":"1998-067XR","EPOCH":"2026-04-20T06:46:58.616832","MEAN_MOTION":15.667613,"ECCENTRICITY":0.0004323,"INCLINATION":51.6265,"RA_OF_ASC_NODE":214.8859,"ARG_OF_PERICENTER":309.0386,"MEAN_ANOMALY":51.0225,"EPHEMERIS_TYPE":0,"CLASSIFICATION_TYPE":"U","NORAD_CAT_ID":66052,"ELEMENT_SET_NO":999,"REV_AT_EPOCH":2890,"BSTAR":0.00036474,"MEAN_MOTION_DOT":0.00038853,"MEAN_MOTION_DDOT":0},{"OBJECT_NAME":"HTV-X1","OBJECT_ID":"2025-241A","EPOCH":"2026-04-19T16:00:23.050944","MEAN_MOTION":15.32697623,"ECCENTRICITY":0.00076736,"INCLINATION":51.6366,"RA_OF_ASC_NODE":235.4531,"ARG_OF_PERICENTER":331.4211,"MEAN_ANOMALY":28.6349,"EPHEMERIS_TYPE":0,"CLASSIFICATION_TYPE":"U","NORAD_CAT_ID":66174,"ELEMENT_SET_NO":999,"REV_AT_EPOCH":2722,"BSTAR":0.00019777608,"MEAN_MOTION_DOT":5.975e-5,"MEAN_MOTION_DDOT":0},{"OBJECT_NAME":"SZ-21 MODULE","OBJECT_ID":"2025-246C","EPOCH":"2026-04-20T20:36:44.961408","MEAN_MOTION":15.71815104,"ECCENTRICITY":0.00044222,"INCLINATION":41.4737,"RA_OF_ASC_NODE":303.1175,"ARG_OF_PERICENTER":300.3097,"MEAN_ANOMALY":59.7308,"EPHEMERIS_TYPE":0,"CLASSIFICATION_TYPE":"U","NORAD_CAT_ID":66515,"ELEMENT_SET_NO":999,"REV_AT_EPOCH":2470,"BSTAR":0.00027243356,"MEAN_MOTION_DOT":0.00036254,"MEAN_MOTION_DDOT":0},{"OBJECT_NAME":"SHENZHOU-22","OBJECT_ID":"2025-272A","EPOCH":"2026-04-20T22:07:39.922176","MEAN_MOTION":15.6272071,"ECCENTRICITY":0.00065145,"INCLINATION":41.4677,"RA_OF_ASC_NODE":310.7964,"ARG_OF_PERICENTER":246.3399,"MEAN_ANOMALY":113.6757,"EPHEMERIS_TYPE":0,"CLASSIFICATION_TYPE":"U","NORAD_CAT_ID":66645,"ELEMENT_SET_NO":999,"REV_AT_EPOCH":28408,"BSTAR":0.00033518255,"MEAN_MOTION_DOT":0.00030776,"MEAN_MOTION_DDOT":0},{"OBJECT_NAME":"SOYUZ-MS 28","OBJECT_ID":"2025-275A","EPOCH":"2026-04-20T18:43:46.346592","MEAN_MOTION":15.48857372,"ECCENTRICITY":0.00067015,"INCLINATION":51.6325,"RA_OF_ASC_NODE":224.2241,"ARG_OF_PERICENTER":330.9223,"MEAN_ANOMALY":29.1391,"EPHEMERIS_TYPE":0,"CLASSIFICATION_TYPE":"U","NORAD_CAT_ID":66664,"ELEMENT_SET_NO":999,"REV_AT_EPOCH":56177,"BSTAR":0.00018579997,"MEAN_MOTION_DOT":9.753e-5,"MEAN_MOTION_DDOT":0},{"OBJECT_NAME":"DUPLEX","OBJECT_ID":"1998-067XS","EPOCH":"2026-04-20T00:47:39.624000","MEAN_MOTION":15.58821856,"ECCENTRICITY":0.00042625,"INCLINATION":51.6288,"RA_OF_ASC_NODE":222.233,"ARG_OF_PERICENTER":316.4091,"MEAN_ANOMALY":43.6565,"EPHEMERIS_TYPE":0,"CLASSIFICATION_TYPE":"U","NORAD_CAT_ID":66906,"ELEMENT_SET_NO":999,"REV_AT_EPOCH":2157,"BSTAR":0.00036370558,"MEAN_MOTION_DOT":0.00028265,"MEAN_MOTION_DDOT":0}]
